{"type": "FeatureCollection", "features": [ {"type": "Feature", "properties": {"norad_id": 32185, "name": "FENGYUN 1C DEB", "group": "fengyun-1c-debris", "lat": 70.29692000645294, "lon": 50.754044395969125, "alt_km": 609.3930614383453, "timestamp": "2025-12-22T23:36:20.999427+00:00", "meta": {"OBJECT_NAME": "FENGYUN 1C DEB", "OBJECT_ID": "1999-025CUF", "EPOCH": "2025-12-22T00:47:09.380544", "MEAN_MOTION": 15.0435873, "ECCENTRICITY": 0.015933, "INCLINATION": 98.9039, "RA_OF_ASC_NODE": 203.6972, "ARG_OF_PERICENTER": 345.1114, "MEAN_ANOMALY": 14.5444, "EPHEMERIS_TYPE": 0, "CLASSIFICATION_TYPE": "U", "NORAD_CAT_ID": 32185, "ELEMENT_SET_NO": 999, "REV_AT_EPOCH": 95155, "BSTAR": 0.0030644262, "MEAN_MOTION_DOT": 0.00057016, "MEAN_MOTION_DDOT": 0}, "tle": {"line1": "1 32185U 99025CUF 25356.03274746  .00057016  00000+0  30644-2 0  9995", "line2": "2 32185  98.9039 203.6972 0159330 345.1114  14.5444 15.04358730951551"}}, "geometry": {"type": "Point", "coordinates": [50.754044395969125, 70.29692000645294]}}, {"type": "Feature", "properties": {"norad_id": 32186, "name": "FENGYUN 1C DEB", "group": "fengyun-1c-debris", "lat": 18.39014423914318, "lon": 44.349687556072006, "alt_km": 1158.9891436203543, "timestamp": "2025-12-22T23:36:20.999439+00:00", "meta": {"OBJECT_NAME": "FENGYUN 1C DEB", "OBJECT_ID": "1999-025CUG", "EPOCH": "2025-12-19T21:20:47.164128", "MEAN_MOTION": 13.76525213, "ECCENTRICITY": 0.0274757, "INCLINATION": 99.6083, "RA_OF_ASC_NODE": 44.4519, "ARG_OF_PERICENTER": 182.1243, "MEAN_ANOMALY": 353.0347, "EPHEMERIS_TYPE": 0, "CLASSIFICATION_TYPE": "U", "NORAD_CAT_ID": 32186, "ELEMENT_SET_NO": 999, "REV_AT_EPOCH": 62708, "BSTAR": 0.00063621, "MEAN_MOTION_DOT": 7.77e-06, "MEAN_MOTION_DDOT": 0}, "tle": {"line1": "1 32186U 99025CUG 25353.88943477  .00000777  00000+0  63621-3 0  9994", "line2": "2 32186  99.6083  44.4519 0274757 182.1243 353.0347 13.76525213627080"}}, "geometry": {"type": "Point", "coordinates": [44.349687556072006, 18.39014423914318]}}, {"type": "Feature", "properties": {"norad_id": 32187, "name": "FENGYUN 1C DEB", "group": "fengyun-1c-debris", "lat": -52.297453357299986, "lon": 88.01342006675739, "alt_km": 1294.9935483772415, "timestamp": "2025-12-22T23:36:20.999451+00:00", "meta": {"OBJECT_NAME": "FENGYUN 1C DEB", "OBJECT_ID": "1999-025CUH", "EPOCH": "2025-12-22T04:28:26.607648", "MEAN_MOTION": 13.50503481, "ECCENTRICITY": 0.02941998, "INCLINATION": 99.5061, "RA_OF_ASC_NODE": 74.7318, "ARG_OF_PERICENTER": 122.3, "MEAN_ANOMALY": 271.1803, "EPHEMERIS_TYPE": 0, "CLASSIFICATION_TYPE": "U", "NORAD_CAT_ID": 32187, "ELEMENT_SET_NO": 999, "REV_AT_EPOCH": 66386, "BSTAR": 0.00040708636, "MEAN_MOTION_DOT": 3.02e-06, "MEAN_MOTION_DDOT": 0}, "tle": {"line1": "1 32187U 99025CUH 25356.18641907  .00000302  00000+0  40709-3 0  9990", "line2": "2 32187  99.5061  74.7318 0294199 122.3000 271.1803 13.50503481663866"}}, "geometry": {"type": "Point", "coordinates": [88.01342006675739, -52.297453357299986]}}, {"type": "Feature", "properties": {"norad_id": 32191, "name": "FENGYUN 1C DEB", "group": "fengyun-1c-debris", "lat": -68.1542533573256, "lon": 75.48122257820577, "alt_km": 860.6581152083718, "timestamp": "2025-12-22T23:36:20.999461+00:00", "meta": {"OBJECT_NAME": "FENGYUN 1C DEB", "OBJECT_ID": "1999-025CUM", "EPOCH": "2025-12-21T20:58:51.048480", "MEAN_MOTION": 14.25250434, "ECCENTRICITY": 0.0093992, "INCLINATION": 98.7058, "RA_OF_ASC_NODE": 51.9104, "ARG_OF_PERICENTER": 160.2974, "MEAN_ANOMALY": 200.1876, "EPHEMERIS_TYPE": 0, "CLASSIFICATION_TYPE": "U", "NORAD_CAT_ID": 32191, "ELEMENT_SET_NO": 999, "REV_AT_EPOCH": 64631, "BSTAR": 0.0012815235, "MEAN_MOTION_DOT": 3.114e-05, "MEAN_MOTION_DDOT": 0}, "tle": {"line1": "1 32191U 99025CUM 25355.87420195  .00003114  00000+0  12815-2 0  9994", "line2": "2 32191  98.7058  51.9104 0093992 160.2974 200.1876 14.25250434646310"}}, "geometry": {"type": "Point", "coordinates": [75.48122257820577, -68.1542533573256]}}, {"type": "Feature", "properties": {"norad_id": 32192, "name": "FENGYUN 1C DEB", "group": "fengyun-1c-debris", "lat": -63.926272830444844, "lon": -114.83580956510897, "alt_km": 1087.3946437683626, "timestamp": "2025-12-22T23:36:20.999477+00:00", "meta": {"OBJECT_NAME": "FENGYUN 1C DEB", "OBJECT_ID": "1999-025CUN", "EPOCH": "2025-12-21T02:46:17.985216", "MEAN_MOTION": 13.82517651, "ECCENTRICITY": 0.01820594, "INCLINATION": 98.6524, "RA_OF_ASC_NODE": 225.3173, "ARG_OF_PERICENTER": 139.7222, "MEAN_ANOMALY": 221.7586, "EPHEMERIS_TYPE": 0, "CLASSIFICATION_TYPE": "U", "NORAD_CAT_ID": 32192, "ELEMENT_SET_NO": 999, "REV_AT_EPOCH": 92828, "BSTAR": 0.00024010714, "MEAN_MOTION_DOT": 2.58e-06, "MEAN_MOTION_DDOT": 0}, "tle": {"line1": "1 32192U 99025CUN 25355.11548594  .00000258  00000+0  24011-3 0  9994", "line2": "2 32192  98.6524 225.3173 0182059 139.7222 221.7586 13.82517651928286"}}, "geometry": {"type": "Point", "coordinates": [-114.83580956510897, -63.926272830444844]}}, {"type": "Feature", "properties": {"norad_id": 32195, "name": "FENGYUN 1C DEB", "group": "fengyun-1c-debris", "lat": 70.85930178739099, "lon": -27.302383338639004, "alt_km": 904.755225230354, "timestamp": "2025-12-22T23:36:20.999487+00:00", "meta": {"OBJECT_NAME": "FENGYUN 1C DEB", "OBJECT_ID": "1999-025CUR", "EPOCH": "2025-12-19T06:36:10.601280", "MEAN_MOTION": 14.08477506, "ECCENTRICITY": 0.0068472, "INCLINATION": 98.7727, "RA_OF_ASC_NODE": 355.5085, "ARG_OF_PERICENTER": 281.675, "MEAN_ANOMALY": 77.6742, "EPHEMERIS_TYPE": 0, "CLASSIFICATION_TYPE": "U", "NORAD_CAT_ID": 32195, "ELEMENT_SET_NO": 999, "REV_AT_EPOCH": 64074, "BSTAR": 0.00040898, "MEAN_MOTION_DOT": 6.73e-06, "MEAN_MOTION_DDOT": 0}, "tle": {"line1": "1 32195U 99025CUR 25353.27512270  .00000673  00000+0  40898-3 0  9996", "line2": "2 32195  98.7727 355.5085 0068472 281.6750  77.6742 14.08477506640745"}}, "geometry": {"type": "Point", "coordinates": [-27.302383338639004, 70.85930178739099]}}, {"type": "Feature", "properties": {"norad_id": 32197, "name": "FENGYUN 1C DEB", "group": "fengyun-1c-debris", "lat": 5.592036039830392, "lon": -94.53393761359298, "alt_km": 896.9661765006058, "timestamp": "2025-12-22T23:36:20.999498+00:00", "meta": {"OBJECT_NAME": "FENGYUN 1C DEB", "OBJECT_ID": "1999-025CUT", "EPOCH": "2025-12-21T14:37:07.256064", "MEAN_MOTION": 14.3268413, "ECCENTRICITY": 0.0161343, "INCLINATION": 98.9021, "RA_OF_ASC_NODE": 264.9335, "ARG_OF_PERICENTER": 203.7564, "MEAN_ANOMALY": 276.5587, "EPHEMERIS_TYPE": 0, "CLASSIFICATION_TYPE": "U", "NORAD_CAT_ID": 32197, "ELEMENT_SET_NO": 999, "REV_AT_EPOCH": 94550, "BSTAR": 0.00025366, "MEAN_MOTION_DOT": 7.46e-06, "MEAN_MOTION_DDOT": 0}, "tle": {"line1": "1 32197U 99025CUT 25355.60911176  .00000746  00000+0  25366-3 0  9999", "line2": "2 32197  98.9021 264.9335 0161343 203.7564 276.5587 14.32684130945505"}}, "geometry": {"type": "Point", "coordinates": [-94.53393761359298, 5.592036039830392]}}, {"type": "Feature", "properties": {"norad_id": 32198, "name": "FENGYUN 1C DEB", "group": "fengyun-1c-debris", "lat": -30.756433539651436, "lon": -41.895315266806094, "alt_km": 826.2036998262383, "timestamp": "2025-12-22T23:36:20.999511+00:00", "meta": {"OBJECT_NAME": "FENGYUN 1C DEB", "OBJECT_ID": "1999-025CUU", "EPOCH": "2025-12-17T02:50:00.320928", "MEAN_MOTION": 14.08857661, "ECCENTRICITY": 0.00954874, "INCLINATION": 98.3425, "RA_OF_ASC_NODE": 137.6834, "ARG_OF_PERICENTER": 279.8444, "MEAN_ANOMALY": 79.1957, "EPHEMERIS_TYPE": 0, "CLASSIFICATION_TYPE": "U", "NORAD_CAT_ID": 32198, "ELEMENT_SET_NO": 999, "REV_AT_EPOCH": 57007, "BSTAR": 0.0016058245, "MEAN_MOTION_DOT": 2.853e-05, "MEAN_MOTION_DDOT": 0}, "tle": {"line1": "1 32198U 99025CUU 25351.11805927  .00002853  00000+0  16058-2 0  9996", "line2": "2 32198  98.3425 137.6834 0095487 279.8444  79.1957 14.08857661570072"}}, "geometry": {"type": "Point", "coordinates": [-41.895315266806094, -30.756433539651436]}}, {"type": "Feature", "properties": {"norad_id": 32200, "name": "FENGYUN 1C DEB", "group": "fengyun-1c-debris", "lat": 17.24407635434579, "lon": 43.061061131466225, "alt_km": 853.3215401540228, "timestamp": "2025-12-22T23:36:20.999521+00:00", "meta": {"OBJECT_NAME": "FENGYUN 1C DEB", "OBJECT_ID": "1999-025CUW", "EPOCH": "2025-12-18T14:21:34.309728", "MEAN_MOTION": 14.15720685, "ECCENTRICITY": 0.00398559, "INCLINATION": 98.7904, "RA_OF_ASC_NODE": 41.4894, "ARG_OF_PERICENTER": 272.8163, "MEAN_ANOMALY": 86.845, "EPHEMERIS_TYPE": 0, "CLASSIFICATION_TYPE": "U", "NORAD_CAT_ID": 32200, "ELEMENT_SET_NO": 999, "REV_AT_EPOCH": 94446, "BSTAR": 0.00076515911, "MEAN_MOTION_DOT": 1.469e-05, "MEAN_MOTION_DDOT": 0}, "tle": {"line1": "1 32200U 99025CUW 25352.59831377  .00001469  00000+0  76516-3 0  9999", "line2": "2 32200  98.7904  41.4894 0039855 272.8163  86.8450 14.15720685944462"}}, "geometry": {"type": "Point", "coordinates": [43.061061131466225, 17.24407635434579]}}, {"type": "Feature", "properties": {"norad_id": 32203, "name": "FENGYUN 1C DEB", "group": "fengyun-1c-debris", "lat": 65.70693985399417, "lon": 83.9003846299635, "alt_km": 382.70871209464804, "timestamp": "2025-12-22T23:36:20.999531+00:00", "meta": {"OBJECT_NAME": "FENGYUN 1C DEB", "OBJECT_ID": "1999-025CUZ", "EPOCH": "2025-12-22T10:39:55.972512", "MEAN_MOTION": 15.41604978, "ECCENTRICITY": 0.0142282, "INCLINATION": 97.0152, "RA_OF_ASC_NODE": 247.55, "ARG_OF_PERICENTER": 57.0674, "MEAN_ANOMALY": 304.4165, "EPHEMERIS_TYPE": 0, "CLASSIFICATION_TYPE": "U", "NORAD_CAT_ID": 32203, "ELEMENT_SET_NO": 999, "REV_AT_EPOCH": 75247, "BSTAR": 0.00088850015, "MEAN_MOTION_DOT": 0.00054261, "MEAN_MOTION_DDOT": 0}, "tle": {"line1": "1 32203U 99025CUZ 25356.44439783  .00054261  00000+0  88850-3 0  9997", "line2": "2 32203  97.0152 247.5500 0142282  57.0674 304.4165 15.41604978752470"}}, "geometry": {"type": "Point", "coordinates": [83.9003846299635, 65.70693985399417]}}]}